{"type": "FeatureCollection", "name": "reseau_fictif", "crs": {"type": "name", "properties": {"name": "urn:ogc:def:crs:OGC:1.3:CRS84"}}, "features": [{"type": "Feature", "properties": {"HQ_OBJET": "Ligne fictive 315 kV", "HQ_ETIQUETTE": "315 kV F001", "HQ_SOURCE": "Réseau fictif de démonstration", "LIGNE": "F001", "TYPE": "aérien", "TENSION_EXP": 315, "RESPONSA": "Démo-Centre", "DIRECTION_TE": "DEMO-C", "ETAT": "Fictif"}, "geometry": {"type": "LineString", "coordinates": [[-68.98392, 50.79736], [-68.89542, 50.74859], [-68.80479, 50.63719], [-68.68305, 50.54476], [-68.58669, 50.4771], [-68.48035, 50.38075], [-68.36186, 50.32888], [-68.24094, 50.30626], [-68.08888, 50.29648], [-67.89494, 50.23812], [-67.76897, 50.23059], [-67.58422, 50.16409], [-67.42679, 50.12323], [-67.31881, 50.08266], [-67.18392, 50.01806], [-67.07085, 49.93137], [-66.9673, 49.84227], [-66.85558, 49.77113], [-66.97587, 49.77113]]}}, {"type": "Feature", "properties": {"HQ_OBJET": "Ligne fictive 230 kV", "HQ_ETIQUETTE": "230 kV F002", "HQ_SOURCE": "Réseau fictif de démonstration", "LIGNE": "F002", "TYPE": "aérien", "TENSION_EXP": 230, "RESPONSA": "Démo-Est", "DIRECTION_TE": "DEMO-E", "ETAT": "Fictif"}, "geometry": {"type": "LineString", "coordinates": [[-70.49564, 48.54296], [-70.4681, 48.63527], [-70.49975, 48.72423], [-70.50181, 48.82842], [-70.51446, 48.92501], [-70.50146, 48.99958], [-70.49897, 49.11341], [-70.4691, 49.19886], [-70.38453, 49.27147], [-70.27665, 49.3095], [-70.14684, 49.35458], [-69.96583, 49.40197], [-69.86632, 49.43611], [-69.71789, 49.44245]]}}, {"type": "Feature", "properties": {"HQ_OBJET": "Ligne fictive 120 kV", "HQ_ETIQUETTE": "120 kV F003", "HQ_SOURCE": "Réseau fictif de démonstration", "LIGNE": "F003", "TYPE": "aérien", "TENSION_EXP": 120, "RESPONSA": "Démo-Ouest", "DIRECTION_TE": "DEMO-O", "ETAT": "Fictif"}, "geometry": {"type": "LineString", "coordinates": [[-74.03019, 50.99047], [-73.87935, 50.91611], [-73.74149, 50.83392], [-73.57259, 50.73845], [-73.37394, 50.67646], [-73.27056, 50.61247], [-73.13805, 50.54622], [-73.00747, 50.49611], [-72.9031, 50.41491], [-72.85997, 50.3123], [-72.80591, 50.21241], [-72.77766, 50.08847]]}}, {"type": "Feature", "properties": {"HQ_OBJET": "Ligne fictive 69 kV", "HQ_ETIQUETTE": "69 kV F004", "HQ_SOURCE": "Réseau fictif de démonstration", "LIGNE": "F004", "TYPE": "aérien", "TENSION_EXP": 69, "RESPONSA": "Démo-Nord", "DIRECTION_TE": "DEMO-N", "ETAT": "Fictif"}, "geometry": {"type": "LineString", "coordinates": [[-71.75887, 49.69753], [-71.65576, 49.63682], [-71.52033, 49.52881], [-71.40543, 49.43938], [-71.30874, 49.31751], [-71.26086, 49.18575], [-71.29387, 49.0543], [-71.3302, 48.96591], [-71.33497, 48.86254], [-71.33199, 48.76032]]}}, {"type": "Feature", "properties": {"HQ_OBJET": "Ligne fictive 735 kV", "HQ_ETIQUETTE": "735 kV F005", "HQ_SOURCE": "Réseau fictif de démonstration", "LIGNE": "F005", "TYPE": "aérien", "TENSION_EXP": 735, "RESPONSA": "Démo-Centre", "DIRECTION_TE": "DEMO-C", "ETAT": "Fictif"}, "geometry": {"type": "LineString", "coordinates": [[-71.09301, 46.60744], [-70.96035, 46.49616], [-70.88612, 46.42288], [-70.73467, 46.3242], [-70.66987, 46.26531], [-70.66987, 46.36705], [-70.61226, 46.46104], [-70.54028, 46.5215], [-70.41142, 46.57929], [-70.26673, 46.61298]]}}, {"type": "Feature", "properties": {"HQ_OBJET": "Ligne fictive 315 kV", "HQ_ETIQUETTE": "315 kV F006", "HQ_SOURCE": "Réseau fictif de démonstration", "LIGNE": "F006", "TYPE": "aérien", "TENSION_EXP": 315, "RESPONSA": "Démo-Est", "DIRECTION_TE": "DEMO-E", "ETAT": "Fictif"}, "geometry": {"type": "LineString", "coordinates": [[-75.61791, 51.09057], [-75.61146, 51.16876], [-75.63733, 51.26731], [-75.69303, 51.35153], [-75.7157, 51.42766], [-75.72844, 51.55233], [-75.66971, 51.67216], [-75.59564, 51.77287], [-75.59564, 51.6421]]}}, {"type": "Feature", "properties": {"HQ_OBJET": "Ligne fictive 230 kV", "HQ_ETIQUETTE": "230 kV F007", "HQ_SOURCE": "Réseau fictif de démonstration", "LIGNE": "F007", "TYPE": "aérien", "TENSION_EXP": 230, "RESPONSA": "Démo-Ouest", "DIRECTION_TE": "DEMO-O", "ETAT": "Fictif"}, "geometry": {"type": "LineString", "coordinates": [[-69.09879, 49.95062], [-68.96595, 49.93831], [-68.81782, 49.89948], [-68.62265, 49.8364], [-68.47235, 49.73602], [-68.34367, 49.69794], [-68.192, 49.65749], [-68.01745, 49.61077], [-67.86336, 49.58928]]}}, {"type": "Feature", "properties": {"HQ_OBJET": "Ligne fictive 120 kV", "HQ_ETIQUETTE": "120 kV F008", "HQ_SOURCE": "Réseau fictif de démonstration", "LIGNE": "F008", "TYPE": "aérien", "TENSION_EXP": 120, "RESPONSA": "Démo-Nord", "DIRECTION_TE": "DEMO-N", "ETAT": "Fictif"}, "geometry": {"type": "LineString", "coordinates": [[-76.5152, 46.66522], [-76.41789, 46.63683], [-76.30642, 46.61331], [-76.12327, 46.57411], [-75.99681, 46.55056], [-75.90519, 46.51505], [-75.80113, 46.48439], [-75.5989, 46.45553], [-75.43217, 46.48121], [-75.26825, 46.45694], [-75.17023, 46.42287], [-74.97205, 46.40069], [-74.80289, 46.39735], [-74.63867, 46.40756], [-74.48939, 46.37871], [-74.2919, 46.36452], [-74.12995, 46.36016], [-74.01856, 46.37567], [-73.82723, 46.38355]]}}, {"type": "Feature", "properties": {"HQ_OBJET": "Ligne fictive 69 kV", "HQ_ETIQUETTE": "69 kV F009", "HQ_SOURCE": "Réseau fictif de démonstration", "LIGNE": "F009", "TYPE": "aérien", "TENSION_EXP": 69, "RESPONSA": "Démo-Centre", "DIRECTION_TE": "DEMO-C", "ETAT": "Fictif"}, "geometry": {"type": "LineString", "coordinates": [[-70.94797, 46.4223], [-70.91058, 46.34954], [-70.84668, 46.23394], [-70.84668, 46.3612], [-70.89792, 46.47102], [-70.93719, 46.55764], [-71.01256, 46.6421], [-71.08055, 46.72112], [-71.1748, 46.77933], [-71.2244, 46.84818], [-71.24639, 46.95716], [-71.30418, 47.0601], [-71.33775, 47.1595], [-71.37751, 47.29959]]}}, {"type": "Feature", "properties": {"HQ_OBJET": "Ligne fictive 735 kV", "HQ_ETIQUETTE": "735 kV F010", "HQ_SOURCE": "Réseau fictif de démonstration", "LIGNE": "F010", "TYPE": "aérien", "TENSION_EXP": 735, "RESPONSA": "Démo-Est", "DIRECTION_TE": "DEMO-E", "ETAT": "Fictif"}, "geometry": {"type": "LineString", "coordinates": [[-67.60549, 48.38723], [-67.74437, 48.35242], [-67.89121, 48.2912], [-68.04171, 48.19665], [-68.14975, 48.08971], [-68.23226, 48.01338], [-68.29748, 47.93943], [-68.3857, 47.84091], [-68.47526, 47.79728], [-68.54727, 47.73577]]}}, {"type": "Feature", "properties": {"HQ_OBJET": "Ligne fictive 315 kV", "HQ_ETIQUETTE": "315 kV F011", "HQ_SOURCE": "Réseau fictif de démonstration", "LIGNE": "F011", "TYPE": "aérien", "TENSION_EXP": 315, "RESPONSA": "Démo-Ouest", "DIRECTION_TE": "DEMO-O", "ETAT": "Fictif"}, "geometry": {"type": "LineString", "coordinates": [[-71.28653, 48.62931], [-71.34103, 48.73414], [-71.36867, 48.83852], [-71.45468, 48.96969], [-71.46314, 49.08777], [-71.44948, 49.18737], [-71.5088, 49.31274], [-71.57179, 49.37299], [-71.6183, 49.49436], [-71.60311, 49.57154], [-71.64845, 49.70601], [-71.65233, 49.79168], [-71.65523, 49.89253], [-71.6728, 50.01462], [-71.71231, 50.10352], [-71.72616, 50.2024], [-71.77393, 50.27701]]}}, {"type": "Feature", "properties": {"HQ_OBJET": "Ligne fictive 230 kV", "HQ_ETIQUETTE": "230 kV F012", "HQ_SOURCE": "Réseau fictif de démonstration", "LIGNE": "F012", "TYPE": "aérien", "TENSION_EXP": 230, "RESPONSA": "Démo-Nord", "DIRECTION_TE": "DEMO-N", "ETAT": "Fictif"}, "geometry": {"type": "LineString", "coordinates": [[-72.80045, 50.88184], [-72.849, 50.77076], [-72.83438, 50.68864], [-72.78104, 50.60748], [-72.69149, 50.54135], [-72.62626, 50.46786], [-72.49784, 50.40259], [-72.30913, 50.36287], [-72.16883, 50.36838], [-72.03788, 50.4016], [-71.85404, 50.41371], [-71.68641, 50.43029], [-71.55051, 50.43436], [-71.32877, 50.40586], [-71.15796, 50.38859], [-71.01901, 50.37088], [-70.86756, 50.35749], [-70.69536, 50.36235], [-70.57035, 50.36223]]}}, {"type": "Feature", "properties": {"HQ_OBJET": "Ligne fictive 120 kV", "HQ_ETIQUETTE": "120 kV F013", "HQ_SOURCE": "Réseau fictif de démonstration", "LIGNE": "F013", "TYPE": "aérien", "TENSION_EXP": 120, "RESPONSA": "Démo-Centre", "DIRECTION_TE": "DEMO-C", "ETAT": "Fictif"}, "geometry": {"type": "LineString", "coordinates": [[-71.8818, 47.80203], [-71.74146, 47.732], [-71.63455, 47.61014], [-71.53857, 47.50487], [-71.44864, 47.37627], [-71.43381, 47.23935], [-71.4729, 47.15607], [-71.48985, 47.07048], [-71.57085, 46.96065], [-71.64717, 46.84089], [-71.72317, 46.7206], [-71.81758, 46.65393], [-71.94231, 46.56949], [-72.11202, 46.51998], [-72.22166, 46.47544], [-72.34021, 46.46252]]}}, {"type": "Feature", "properties": {"HQ_OBJET": "Ligne fictive 69 kV", "HQ_ETIQUETTE": "69 kV F014", "HQ_SOURCE": "Réseau fictif de démonstration", "LIGNE": "F014", "TYPE": "aérien", "TENSION_EXP": 69, "RESPONSA": "Démo-Est", "DIRECTION_TE": "DEMO-E", "ETAT": "Fictif"}, "geometry": {"type": "LineString", "coordinates": [[-69.39088, 49.18155], [-69.41748, 49.30267], [-69.39447, 49.39403], [-69.32182, 49.49005], [-69.25116, 49.60176], [-69.24994, 49.68633], [-69.17382, 49.79637], [-69.01904, 49.89993], [-68.84445, 49.98959], [-68.72993, 50.03918], [-68.58982, 50.05956], [-68.48524, 50.08794]]}}, {"type": "Feature", "properties": {"HQ_OBJET": "Ligne fictive 735 kV", "HQ_ETIQUETTE": "735 kV F015", "HQ_SOURCE": "Réseau fictif de démonstration", "LIGNE": "F015", "TYPE": "aérien", "TENSION_EXP": 735, "RESPONSA": "Démo-Ouest", "DIRECTION_TE": "DEMO-O", "ETAT": "Fictif"}, "geometry": {"type": "LineString", "coordinates": [[-71.91116, 47.54854], [-71.76435, 47.53019], [-71.57669, 47.54992], [-71.47013, 47.53175], [-71.29381, 47.54954], [-71.17623, 47.59581], [-70.99792, 47.65192], [-70.8801, 47.72892], [-70.7292, 47.80077], [-70.61751, 47.84425], [-70.48197, 47.91574]]}}, {"type": "Feature", "properties": {"HQ_OBJET": "Ligne fictive 315 kV", "HQ_ETIQUETTE": "315 kV F016", "HQ_SOURCE": "Réseau fictif de démonstration", "LIGNE": "F016", "TYPE": "aérien", "TENSION_EXP": 315, "RESPONSA": "Démo-Nord", "DIRECTION_TE": "DEMO-N", "ETAT": "Fictif"}, "geometry": {"type": "LineString", "coordinates": [[-75.25231, 49.54418], [-75.45907, 49.53413], [-75.60665, 49.5099], [-75.69865, 49.46686], [-75.81368, 49.43124], [-75.9263, 49.38852], [-76.04769, 49.36165], [-76.16524, 49.30269], [-76.30512, 49.19968], [-76.40693, 49.13832], [-76.47167, 49.04532]]}}, {"type": "Feature", "properties": {"HQ_OBJET": "Ligne fictive 230 kV", "HQ_ETIQUETTE": "230 kV F017", "HQ_SOURCE": "Réseau fictif de démonstration", "LIGNE": "F017", "TYPE": "aérien", "TENSION_EXP": 230, "RESPONSA": "Démo-Centre", "DIRECTION_TE": "DEMO-C", "ETAT": "Fictif"}, "geometry": {"type": "LineString", "coordinates": [[-72.92384, 46.66191], [-73.05816, 46.72682], [-73.20153, 46.75569], [-73.37022, 46.74844], [-73.4846, 46.76924], [-73.59123, 46.81681], [-73.75132, 46.83858], [-73.88237, 46.89998], [-74.01531, 47.00179]]}}, {"type": "Feature", "properties": {"HQ_OBJET": "Ligne fictive 120 kV", "HQ_ETIQUETTE": "120 kV F018", "HQ_SOURCE": "Réseau fictif de démonstration", "LIGNE": "F018", "TYPE": "aérien", "TENSION_EXP": 120, "RESPONSA": "Démo-Est", "DIRECTION_TE": "DEMO-E", "ETAT": "Fictif"}, "geometry": {"type": "LineString", "coordinates": [[-71.28253, 50.33432], [-71.1934, 50.37888], [-71.05628, 50.42026], [-70.96824, 50.46578], [-70.88224, 50.56194], [-70.84757, 50.63835], [-70.76706, 50.76452], [-70.68258, 50.85498], [-70.559, 50.94289], [-70.47624, 51.02617]]}}, {"type": "Feature", "properties": {"HQ_OBJET": "Ligne fictive 69 kV", "HQ_ETIQUETTE": "69 kV F019", "HQ_SOURCE": "Réseau fictif de démonstration", "LIGNE": "F019", "TYPE": "aérien", "TENSION_EXP": 69, "RESPONSA": "Démo-Ouest", "DIRECTION_TE": "DEMO-O", "ETAT": "Fictif"}, "geometry": {"type": "LineString", "coordinates": [[-75.21649, 50.78363], [-75.33548, 50.80924], [-75.46936, 50.85955], [-75.64404, 50.93365], [-75.81289, 51.0292], [-75.92508, 51.13476], [-75.9962, 51.24359], [-76.01072, 51.35692], [-76.06486, 51.43783], [-76.19975, 51.54815], [-76.27882, 51.62103]]}}, {"type": "Feature", "properties": {"HQ_OBJET": "Ligne fictive 735 kV", "HQ_ETIQUETTE": "735 kV F020", "HQ_SOURCE": "Réseau fictif de démonstration", "LIGNE": "F020", "TYPE": "aérien", "TENSION_EXP": 735, "RESPONSA": "Démo-Nord", "DIRECTION_TE": "DEMO-N", "ETAT": "Fictif"}, "geometry": {"type": "LineString", "coordinates": [[-67.95106, 49.64374], [-67.96604, 49.72861], [-67.93169, 49.82562], [-67.85485, 49.90056], [-67.77238, 50.02004], [-67.68154, 50.11903], [-67.65069, 50.23378], [-67.55035, 50.33826], [-67.5281, 50.44099], [-67.44274, 50.53343], [-67.32304, 50.59732], [-67.24884, 50.68961], [-67.18733, 50.82442], [-67.16408, 50.91649], [-67.19018, 51.05034], [-67.14013, 51.17465], [-67.09199, 51.27322], [-67.0966, 51.3525]]}}, {"type": "Feature", "properties": {"HQ_OBJET": "Ligne fictive 315 kV", "HQ_ETIQUETTE": "315 kV F021", "HQ_SOURCE": "Réseau fictif de démonstration", "LIGNE": "F021", "TYPE": "aérien", "TENSION_EXP": 315, "RESPONSA": "Démo-Centre", "DIRECTION_TE": "DEMO-C", "ETAT": "Fictif"}, "geometry": {"type": "LineString", "coordinates": [[-76.21431, 49.98078], [-76.02674, 49.90206], [-75.87715, 49.83385], [-75.74627, 49.78458], [-75.61534, 49.68005], [-75.54155, 49.62499], [-75.47503, 49.49704], [-75.39458, 49.36988], [-75.29768, 49.27418], [-75.13437, 49.18072], [-74.97388, 49.1174], [-74.87708, 49.03369], [-74.73771, 48.97643], [-74.58138, 48.95277], [-74.47817, 48.9154], [-74.32811, 48.85403]]}}, {"type": "Feature", "properties": {"HQ_OBJET": "Ligne fictive 230 kV", "HQ_ETIQUETTE": "230 kV F022", "HQ_SOURCE": "Réseau fictif de démonstration", "LIGNE": "F022", "TYPE": "aérien", "TENSION_EXP": 230, "RESPONSA": "Démo-Est", "DIRECTION_TE": "DEMO-E", "ETAT": "Fictif"}, "geometry": {"type": "LineString", "coordinates": [[-68.38086, 46.69668], [-68.45396, 46.58304], [-68.54928, 46.5162], [-68.6807, 46.40826], [-68.8382, 46.33318], [-68.96459, 46.28744], [-68.96459, 46.38092], [-69.0116, 46.45542], [-69.09494, 46.52232], [-69.14036, 46.58844], [-69.15005, 46.66093], [-69.20182, 46.74361], [-69.23925, 46.85826], [-69.23825, 46.99082], [-69.18857, 47.08286], [-69.15521, 47.20217], [-69.12512, 47.32022]]}}, {"type": "Feature", "properties": {"HQ_OBJET": "Ligne fictive 120 kV", "HQ_ETIQUETTE": "120 kV F023", "HQ_SOURCE": "Réseau fictif de démonstration", "LIGNE": "F023", "TYPE": "aérien", "TENSION_EXP": 120, "RESPONSA": "Démo-Ouest", "DIRECTION_TE": "DEMO-O", "ETAT": "Fictif"}, "geometry": {"type": "LineString", "coordinates": [[-73.32328, 47.97052], [-73.22721, 48.06727], [-73.08982, 48.12618], [-72.97616, 48.21604], [-72.90512, 48.34066], [-72.83931, 48.44219], [-72.8418, 48.57002], [-72.92632, 48.69614], [-72.95722, 48.77103]]}}, {"type": "Feature", "properties": {"HQ_OBJET": "Ligne fictive 69 kV", "HQ_ETIQUETTE": "69 kV F024", "HQ_SOURCE": "Réseau fictif de démonstration", "LIGNE": "F024", "TYPE": "aérien", "TENSION_EXP": 69, "RESPONSA": "Démo-Nord", "DIRECTION_TE": "DEMO-N", "ETAT": "Fictif"}, "geometry": {"type": "LineString", "coordinates": [[-68.37047, 47.86949], [-68.4882, 47.83505], [-68.59738, 47.81039], [-68.72075, 47.8194], [-68.82577, 47.85738], [-68.9692, 47.94943], [-69.12375, 48.01038], [-69.27342, 48.04259], [-69.3928, 48.0467], [-69.56389, 48.03169], [-69.77514, 48.00771], [-69.97207, 48.02862]]}}, {"type": "Feature", "properties": {"HQ_OBJET": "Ligne fictive 735 kV", "HQ_ETIQUETTE": "735 kV F025", "HQ_SOURCE": "Réseau fictif de démonstration", "LIGNE": "F025", "TYPE": "aérien", "TENSION_EXP": 735, "RESPONSA": "Démo-Centre", "DIRECTION_TE": "DEMO-C", "ETAT": "Fictif"}, "geometry": {"type": "LineString", "coordinates": [[-76.62974, 51.38052], [-76.49184, 51.39369], [-76.37237, 51.41356], [-76.20791, 51.40956], [-76.04472, 51.41321], [-75.85303, 51.40172], [-75.67099, 51.36763], [-75.52518, 51.32565], [-75.32925, 51.25971], [-75.11579, 51.24418], [-74.99765, 51.20998], [-74.82362, 51.15167], [-74.61544, 51.11142]]}}, {"type": "Feature", "properties": {"HQ_OBJET": "Ligne fictive 315 kV", "HQ_ETIQUETTE": "315 kV F026", "HQ_SOURCE": "Réseau fictif de démonstration", "LIGNE": "F026", "TYPE": "aérien", "TENSION_EXP": 315, "RESPONSA": "Démo-Est", "DIRECTION_TE": "DEMO-E", "ETAT": "Fictif"}, "geometry": {"type": "LineString", "coordinates": [[-76.88691, 48.82376], [-77.00297, 48.75882], [-77.09398, 48.70126], [-77.17105, 48.59833], [-77.27199, 48.52281], [-77.43154, 48.43854], [-77.59267, 48.40393], [-77.73717, 48.32418], [-77.58024, 48.32418], [-77.44824, 48.34082], [-77.28734, 48.40618], [-77.17693, 48.42633], [-76.97786, 48.42636], [-76.78181, 48.39349], [-76.6322, 48.37637], [-76.44776, 48.34301], [-76.33036, 48.30185]]}}, {"type": "Feature", "properties": {"HQ_OBJET": "Ligne fictive 230 kV", "HQ_ETIQUETTE": "230 kV F027", "HQ_SOURCE": "Réseau fictif de démonstration", "LIGNE": "F027", "TYPE": "aérien", "TENSION_EXP": 230, "RESPONSA": "Démo-Ouest", "DIRECTION_TE": "DEMO-O", "ETAT": "Fictif"}, "geometry": {"type": "LineString", "coordinates": [[-76.98574, 46.48187], [-76.88057, 46.42905], [-76.76739, 46.41295], [-76.6253, 46.39029], [-76.47314, 46.34826], [-76.37188, 46.28163], [-76.37188, 46.41377], [-76.35559, 46.52536], [-76.40804, 46.66481], [-76.45288, 46.77746], [-76.5238, 46.89669], [-76.62204, 46.97855], [-76.75506, 47.05378], [-76.87359, 47.13678], [-76.94655, 47.21999], [-77.03328, 47.27714], [-77.12585, 47.31602], [-77.23005, 47.40447], [-77.27431, 47.48304]]}}, {"type": "Feature", "properties": {"HQ_OBJET": "Ligne fictive 120 kV", "HQ_ETIQUETTE": "120 kV F028", "HQ_SOURCE": "Réseau fictif de démonstration", "LIGNE": "F028", "TYPE": "aérien", "TENSION_EXP": 120, "RESPONSA": "Démo-Nord", "DIRECTION_TE": "DEMO-N", "ETAT": "Fictif"}, "geometry": {"type": "LineString", "coordinates": [[-72.18843, 47.19444], [-72.17899, 47.08776], [-72.14742, 47.00347], [-72.15419, 46.91215], [-72.20826, 46.79608], [-72.24978, 46.72724], [-72.30105, 46.59868], [-72.38245, 46.48692], [-72.44274, 46.40497], [-72.51601, 46.31014], [-72.57055, 46.22227], [-72.57055, 46.31978], [-72.50157, 46.4443], [-72.38368, 46.54451], [-72.23786, 46.61515], [-72.05162, 46.67403], [-71.93647, 46.72812], [-71.82955, 46.75543]]}}, {"type": "Feature", "properties": {"HQ_OBJET": "Ligne fictive 69 kV", "HQ_ETIQUETTE": "69 kV F029", "HQ_SOURCE": "Réseau fictif de démonstration", "LIGNE": "F029", "TYPE": "aérien", "TENSION_EXP": 69, "RESPONSA": "Démo-Centre", "DIRECTION_TE": "DEMO-C", "ETAT": "Fictif"}, "geometry": {"type": "LineString", "coordinates": [[-72.1119, 51.05314], [-72.23898, 50.94148], [-72.34166, 50.90427], [-72.48073, 50.8096], [-72.57573, 50.72662], [-72.7265, 50.6219], [-72.80063, 50.51737], [-72.79939, 50.42446], [-72.88576, 50.29372], [-72.90689, 50.20646], [-72.86189, 50.06552], [-72.87579, 49.93256]]}}, {"type": "Feature", "properties": {"HQ_OBJET": "Ligne fictive 735 kV", "HQ_ETIQUETTE": "735 kV F030", "HQ_SOURCE": "Réseau fictif de démonstration", "LIGNE": "F030", "TYPE": "aérien", "TENSION_EXP": 735, "RESPONSA": "Démo-Est", "DIRECTION_TE": "DEMO-E", "ETAT": "Fictif"}, "geometry": {"type": "LineString", "coordinates": [[-72.41631, 48.97634], [-72.33484, 48.90584], [-72.24515, 48.85451], [-72.15617, 48.77133], [-72.02654, 48.7186], [-71.92961, 48.63221], [-71.81921, 48.57836], [-71.68584, 48.51464], [-71.57404, 48.48203], [-71.41385, 48.39668], [-71.3194, 48.35257], [-71.18505, 48.32461], [-71.07258, 48.32382], [-70.95848, 48.29209], [-70.7966, 48.19921], [-70.69997, 48.13538], [-70.62585, 48.07372], [-70.49786, 48.01734], [-70.38422, 47.96006]]}}, {"type": "Feature", "properties": {"HQ_OBJET": "Ligne fictive 315 kV", "HQ_ETIQUETTE": "315 kV F031", "HQ_SOURCE": "Réseau fictif de démonstration", "LIGNE": "F031", "TYPE": "aérien", "TENSION_EXP": 315, "RESPONSA": "Démo-Ouest", "DIRECTION_TE": "DEMO-O", "ETAT": "Fictif"}, "geometry": {"type": "LineString", "coordinates": [[-72.57902, 48.77233], [-72.71523, 48.6944], [-72.79987, 48.59436], [-72.87553, 48.5063], [-73.00007, 48.43487], [-73.09087, 48.35288], [-73.14275, 48.25314], [-73.2258, 48.14998], [-73.24594, 48.03919]]}}, {"type": "Feature", "properties": {"HQ_OBJET": "Ligne fictive 230 kV", "HQ_ETIQUETTE": "230 kV F032", "HQ_SOURCE": "Réseau fictif de démonstration", "LIGNE": "F032", "TYPE": "aérien", "TENSION_EXP": 230, "RESPONSA": "Démo-Nord", "DIRECTION_TE": "DEMO-N", "ETAT": "Fictif"}, "geometry": {"type": "LineString", "coordinates": [[-72.07156, 49.52469], [-71.99281, 49.63998], [-71.97609, 49.76858], [-71.99925, 49.85651], [-72.02216, 49.9332], [-72.03136, 50.0441], [-71.99028, 50.11717], [-71.94149, 50.18701], [-71.92668, 50.2699], [-71.86015, 50.35123], [-71.75368, 50.4323]]}}, {"type": "Feature", "properties": {"HQ_OBJET": "Ligne fictive 120 kV", "HQ_ETIQUETTE": "120 kV F033", "HQ_SOURCE": "Réseau fictif de démonstration", "LIGNE": "F033", "TYPE": "aérien", "TENSION_EXP": 120, "RESPONSA": "Démo-Centre", "DIRECTION_TE": "DEMO-C", "ETAT": "Fictif"}, "geometry": {"type": "LineString", "coordinates": [[-74.19334, 51.3019], [-74.11207, 51.24932], [-74.00122, 51.16242], [-73.80958, 51.09654], [-73.6518, 51.02973], [-73.44538, 50.96881], [-73.26772, 50.93956], [-73.12195, 50.91732], [-72.97566, 50.86978], [-72.76072, 50.82781], [-72.55071, 50.83425], [-72.41758, 50.84224], [-72.29952, 50.87343], [-72.1186, 50.8943], [-71.94758, 50.88675]]}}, {"type": "Feature", "properties": {"HQ_OBJET": "Ligne fictive 69 kV", "HQ_ETIQUETTE": "69 kV F034", "HQ_SOURCE": "Réseau fictif de démonstration", "LIGNE": "F034", "TYPE": "aérien", "TENSION_EXP": 69, "RESPONSA": "Démo-Est", "DIRECTION_TE": "DEMO-E", "ETAT": "Fictif"}, "geometry": {"type": "LineString", "coordinates": [[-70.66992, 48.45905], [-70.68065, 48.53759], [-70.66163, 48.65292], [-70.63962, 48.75608], [-70.61832, 48.85892], [-70.54554, 48.9561], [-70.49817, 49.09393], [-70.49519, 49.16989], [-70.453, 49.27205], [-70.39391, 49.36212], [-70.26403, 49.46066], [-70.12666, 49.55981]]}}, {"type": "Feature", "properties": {"HQ_OBJET": "Ligne fictive 735 kV", "HQ_ETIQUETTE": "735 kV F035", "HQ_SOURCE": "Réseau fictif de démonstration", "LIGNE": "F035", "TYPE": "aérien", "TENSION_EXP": 735, "RESPONSA": "Démo-Ouest", "DIRECTION_TE": "DEMO-O", "ETAT": "Fictif"}, "geometry": {"type": "LineString", "coordinates": [[-72.49231, 49.5905], [-72.51492, 49.68954], [-72.56856, 49.81817], [-72.66552, 49.92809], [-72.72614, 50.0299], [-72.79105, 50.15137], [-72.86768, 50.27935], [-72.8946, 50.36984], [-72.9886, 50.45653], [-73.0324, 50.57907], [-73.02062, 50.7034], [-73.07432, 50.79126], [-73.13888, 50.90665], [-73.18979, 51.01003], [-73.22099, 51.09513], [-73.25719, 51.2119], [-73.24603, 51.30376], [-73.15848, 51.40942]]}}, {"type": "Feature", "properties": {"HQ_OBJET": "Ligne fictive 315 kV", "HQ_ETIQUETTE": "315 kV F036", "HQ_SOURCE": "Réseau fictif de démonstration", "LIGNE": "F036", "TYPE": "aérien", "TENSION_EXP": 315, "RESPONSA": "Démo-Nord", "DIRECTION_TE": "DEMO-N", "ETAT": "Fictif"}, "geometry": {"type": "LineString", "coordinates": [[-75.47261, 48.07918], [-75.49429, 48.17023], [-75.51433, 48.274], [-75.46818, 48.40049], [-75.49057, 48.50577], [-75.49985, 48.64569], [-75.50208, 48.73137], [-75.49416, 48.86196], [-75.53602, 48.93813], [-75.54504, 49.08164], [-75.56361, 49.18236], [-75.61242, 49.30566], [-75.60774, 49.38551], [-75.62331, 49.51411], [-75.59722, 49.62609], [-75.61898, 49.70342], [-75.70678, 49.8032], [-75.7344, 49.89026], [-75.76315, 50.00892]]}}, {"type": "Feature", "properties": {"HQ_OBJET": "Ligne fictive 230 kV", "HQ_ETIQUETTE": "230 kV F037", "HQ_SOURCE": "Réseau fictif de démonstration", "LIGNE": "F037", "TYPE": "aérien", "TENSION_EXP": 230, "RESPONSA": "Démo-Centre", "DIRECTION_TE": "DEMO-C", "ETAT": "Fictif"}, "geometry": {"type": "LineString", "coordinates": [[-73.01921, 47.38034], [-73.15474, 47.30907], [-73.25893, 47.18928], [-73.29499, 47.05716], [-73.29666, 46.9701], [-73.26289, 46.87405], [-73.30044, 46.73541], [-73.31964, 46.6424], [-73.37661, 46.57184], [-73.39346, 46.49537], [-73.39572, 46.41822], [-73.48369, 46.29187], [-73.48369, 46.42163], [-73.45046, 46.51567], [-73.42466, 46.64565], [-73.45687, 46.75721], [-73.42906, 46.89437], [-73.427, 46.97338]]}}, {"type": "Feature", "properties": {"HQ_OBJET": "Ligne fictive 120 kV", "HQ_ETIQUETTE": "120 kV F038", "HQ_SOURCE": "Réseau fictif de démonstration", "LIGNE": "F038", "TYPE": "aérien", "TENSION_EXP": 120, "RESPONSA": "Démo-Est", "DIRECTION_TE": "DEMO-E", "ETAT": "Fictif"}, "geometry": {"type": "LineString", "coordinates": [[-72.95048, 49.1052], [-72.82175, 49.03939], [-72.71327, 48.94935], [-72.64756, 48.86338], [-72.57612, 48.76368], [-72.56163, 48.67048], [-72.51594, 48.56136], [-72.44152, 48.45425], [-72.37584, 48.33886], [-72.3654, 48.22217], [-72.31629, 48.1337], [-72.33093, 48.00917]]}}, {"type": "Feature", "properties": {"HQ_OBJET": "Ligne fictive 69 kV", "HQ_ETIQUETTE": "69 kV F039", "HQ_SOURCE": "Réseau fictif de démonstration", "LIGNE": "F039", "TYPE": "aérien", "TENSION_EXP": 69, "RESPONSA": "Démo-Ouest", "DIRECTION_TE": "DEMO-O", "ETAT": "Fictif"}, "geometry": {"type": "LineString", "coordinates": [[-68.3521, 51.3586], [-68.54842, 51.3444], [-68.77128, 51.36699], [-68.93466, 51.40048], [-69.09243, 51.46607], [-69.24374, 51.54248], [-69.36221, 51.61733], [-69.43268, 51.71539], [-69.43268, 51.59272], [-69.38477, 51.5022], [-69.39837, 51.3976], [-69.33614, 51.29074], [-69.25728, 51.21953], [-69.13889, 51.12308], [-69.05184, 51.06554], [-68.92228, 51.03117], [-68.70431, 51.01211]]}}, {"type": "Feature", "properties": {"HQ_OBJET": "Ligne fictive 735 kV", "HQ_ETIQUETTE": "735 kV F040", "HQ_SOURCE": "Réseau fictif de démonstration", "LIGNE": "F040", "TYPE": "aérien", "TENSION_EXP": 735, "RESPONSA": "Démo-Nord", "DIRECTION_TE": "DEMO-N", "ETAT": "Fictif"}, "geometry": {"type": "LineString", "coordinates": [[-70.48929, 47.27693], [-70.65573, 47.2528], [-70.77476, 47.23395], [-70.91308, 47.22722], [-71.09933, 47.20317], [-71.21612, 47.19344], [-71.40377, 47.19951], [-71.56673, 47.21172], [-71.69547, 47.20655], [-71.82969, 47.19505], [-71.95262, 47.18217], [-72.08802, 47.13127], [-72.18029, 47.07032], [-72.32738, 47.01832], [-72.44779, 46.97293]]}}, {"type": "Feature", "properties": {"HQ_OBJET": "Ligne fictive 315 kV", "HQ_ETIQUETTE": "315 kV F041", "HQ_SOURCE": "Réseau fictif de démonstration", "LIGNE": "F041", "TYPE": "aérien", "TENSION_EXP": 315, "RESPONSA": "Démo-Centre", "DIRECTION_TE": "DEMO-C", "ETAT": "Fictif"}, "geometry": {"type": "LineString", "coordinates": [[-72.79631, 47.45857], [-72.90588, 47.46213], [-73.01012, 47.44535], [-73.1232, 47.45318], [-73.31563, 47.47717], [-73.51039, 47.45787], [-73.66499, 47.44186], [-73.82377, 47.44277], [-73.96716, 47.4567], [-74.11598, 47.44291], [-74.2591, 47.46566]]}}, {"type": "Feature", "properties": {"HQ_OBJET": "Ligne fictive 230 kV", "HQ_ETIQUETTE": "230 kV F042", "HQ_SOURCE": "Réseau fictif de démonstration", "LIGNE": "F042", "TYPE": "aérien", "TENSION_EXP": 230, "RESPONSA": "Démo-Est", "DIRECTION_TE": "DEMO-E", "ETAT": "Fictif"}, "geometry": {"type": "LineString", "coordinates": [[-73.75407, 47.67699], [-73.91934, 47.70352], [-74.05434, 47.71671], [-74.17556, 47.76594], [-74.2768, 47.79704], [-74.39219, 47.80847], [-74.49688, 47.83953], [-74.63737, 47.86073], [-74.83485, 47.90323], [-74.93864, 47.96203], [-75.03333, 48.00233], [-75.15271, 48.0994], [-75.19533, 48.16839], [-75.24743, 48.25359], [-75.25654, 48.39388], [-75.29797, 48.51082], [-75.32114, 48.58377], [-75.39864, 48.71588]]}}, {"type": "Feature", "properties": {"HQ_OBJET": "Ligne fictive 120 kV", "HQ_ETIQUETTE": "120 kV F043", "HQ_SOURCE": "Réseau fictif de démonstration", "LIGNE": "F043", "TYPE": "aérien", "TENSION_EXP": 120, "RESPONSA": "Démo-Ouest", "DIRECTION_TE": "DEMO-O", "ETAT": "Fictif"}, "geometry": {"type": "LineString", "coordinates": [[-72.21462, 50.85518], [-72.28698, 50.77113], [-72.34216, 50.7014], [-72.45307, 50.5839], [-72.47424, 50.47119], [-72.47927, 50.3365], [-72.41136, 50.22965], [-72.41157, 50.09261], [-72.43705, 49.9824]]}}, {"type": "Feature", "properties": {"HQ_OBJET": "Ligne fictive 69 kV", "HQ_ETIQUETTE": "69 kV F044", "HQ_SOURCE": "Réseau fictif de démonstration", "LIGNE": "F044", "TYPE": "aérien", "TENSION_EXP": 69, "RESPONSA": "Démo-Nord", "DIRECTION_TE": "DEMO-N", "ETAT": "Fictif"}, "geometry": {"type": "LineString", "coordinates": [[-67.41395, 48.06256], [-67.24599, 48.10284], [-67.11301, 48.13152], [-66.9827, 48.20613], [-66.80581, 48.26284], [-66.97502, 48.26284], [-67.1483, 48.26209], [-67.25946, 48.27946], [-67.4442, 48.31795], [-67.57629, 48.35668]]}}, {"type": "Feature", "properties": {"HQ_OBJET": "Ligne fictive 735 kV", "HQ_ETIQUETTE": "735 kV F045", "HQ_SOURCE": "Réseau fictif de démonstration", "LIGNE": "F045", "TYPE": "aérien", "TENSION_EXP": 735, "RESPONSA": "Démo-Centre", "DIRECTION_TE": "DEMO-C", "ETAT": "Fictif"}, "geometry": {"type": "LineString", "coordinates": [[-74.43492, 47.14892], [-74.60864, 47.21977], [-74.75661, 47.23821], [-74.88013, 47.27204], [-75.0389, 47.29354], [-75.15604, 47.32702], [-75.26329, 47.40247], [-75.37452, 47.48165], [-75.43938, 47.5529]]}}, {"type": "Feature", "properties": {"HQ_OBJET": "Ligne fictive 315 kV", "HQ_ETIQUETTE": "315 kV F046", "HQ_SOURCE": "Réseau fictif de démonstration", "LIGNE": "F046", "TYPE": "aérien", "TENSION_EXP": 315, "RESPONSA": "Démo-Est", "DIRECTION_TE": "DEMO-E", "ETAT": "Fictif"}, "geometry": {"type": "LineString", "coordinates": [[-70.98814, 51.5177], [-70.98009, 51.43438], [-70.90655, 51.34344], [-70.80823, 51.23817], [-70.74918, 51.1607], [-70.73038, 51.02897], [-70.64983, 50.94156], [-70.51242, 50.83216], [-70.44282, 50.7374], [-70.33673, 50.64476], [-70.22723, 50.55536], [-70.06799, 50.471], [-70.00447, 50.40304], [-69.98022, 50.32946]]}}, {"type": "Feature", "properties": {"HQ_OBJET": "Ligne fictive 230 kV", "HQ_ETIQUETTE": "230 kV F047", "HQ_SOURCE": "Réseau fictif de démonstration", "LIGNE": "F047", "TYPE": "aérien", "TENSION_EXP": 230, "RESPONSA": "Démo-Ouest", "DIRECTION_TE": "DEMO-O", "ETAT": "Fictif"}, "geometry": {"type": "LineString", "coordinates": [[-75.56942, 47.79561], [-75.67965, 47.82668], [-75.83269, 47.88899], [-76.02968, 47.93706], [-76.14113, 47.94411], [-76.28808, 47.96516], [-76.41167, 48.00087], [-76.53203, 48.0759], [-76.6685, 48.17217], [-76.80841, 48.27172], [-76.9151, 48.33312], [-76.98322, 48.426], [-77.04998, 48.51037]]}}, {"type": "Feature", "properties": {"HQ_OBJET": "Ligne fictive 120 kV", "HQ_ETIQUETTE": "120 kV F048", "HQ_SOURCE": "Réseau fictif de démonstration", "LIGNE": "F048", "TYPE": "aérien", "TENSION_EXP": 120, "RESPONSA": "Démo-Nord", "DIRECTION_TE": "DEMO-N", "ETAT": "Fictif"}, "geometry": {"type": "LineString", "coordinates": [[-69.24944, 48.95205], [-69.22986, 49.05529], [-69.24263, 49.1597], [-69.219, 49.23054], [-69.13375, 49.36344], [-69.10878, 49.47212], [-69.05045, 49.57218], [-69.00566, 49.65866], [-68.8837, 49.76588], [-68.76311, 49.84871], [-68.60405, 49.94378], [-68.44837, 49.98113], [-68.29549, 50.01042], [-68.18245, 50.00746], [-68.01752, 50.01523], [-67.81325, 50.05064], [-67.64281, 50.08135], [-67.4792, 50.11508]]}}, {"type": "Feature", "properties": {"HQ_OBJET": "Ligne fictive 69 kV", "HQ_ETIQUETTE": "69 kV F049", "HQ_SOURCE": "Réseau fictif de démonstration", "LIGNE": "F049", "TYPE": "aérien", "TENSION_EXP": 69, "RESPONSA": "Démo-Centre", "DIRECTION_TE": "DEMO-C", "ETAT": "Fictif"}, "geometry": {"type": "LineString", "coordinates": [[-73.21126, 47.7864], [-73.20774, 47.67085], [-73.20146, 47.56539], [-73.20384, 47.48818], [-73.22704, 47.40333], [-73.29427, 47.33326], [-73.36067, 47.24147], [-73.42672, 47.11931], [-73.41872, 47.00064], [-73.40188, 46.92295]]}}, {"type": "Feature", "properties": {"HQ_OBJET": "Ligne fictive 735 kV", "HQ_ETIQUETTE": "735 kV F050", "HQ_SOURCE": "Réseau fictif de démonstration", "LIGNE": "F050", "TYPE": "aérien", "TENSION_EXP": 735, "RESPONSA": "Démo-Est", "DIRECTION_TE": "DEMO-E", "ETAT": "Fictif"}, "geometry": {"type": "LineString", "coordinates": [[-67.91191, 49.90482], [-67.75593, 49.81619], [-67.62708, 49.76959], [-67.46229, 49.67328], [-67.33274, 49.62821], [-67.1788, 49.61631], [-67.06456, 49.59152], [-66.90208, 49.57551], [-66.73703, 49.56979]]}}, {"type": "Feature", "properties": {"HQ_OBJET": "Ligne fictive 315 kV", "HQ_ETIQUETTE": "315 kV F051", "HQ_SOURCE": "Réseau fictif de démonstration", "LIGNE": "F051", "TYPE": "aérien", "TENSION_EXP": 315, "RESPONSA": "Démo-Ouest", "DIRECTION_TE": "DEMO-O", "ETAT": "Fictif"}, "geometry": {"type": "LineString", "coordinates": [[-67.73409, 47.28479], [-67.91362, 47.30103], [-68.03865, 47.34189], [-68.16304, 47.34734], [-68.30911, 47.35201], [-68.45639, 47.35174], [-68.64896, 47.29056], [-68.77854, 47.26633], [-68.92313, 47.21926], [-69.04501, 47.13937], [-69.14611, 47.11334], [-69.25321, 47.08245], [-69.41645, 47.06302], [-69.578, 47.07799], [-69.77709, 47.09334], [-69.94219, 47.06284], [-70.10112, 47.05645], [-70.27906, 47.01056]]}}, {"type": "Feature", "properties": {"HQ_OBJET": "Ligne fictive 230 kV", "HQ_ETIQUETTE": "230 kV F052", "HQ_SOURCE": "Réseau fictif de démonstration", "LIGNE": "F052", "TYPE": "aérien", "TENSION_EXP": 230, "RESPONSA": "Démo-Nord", "DIRECTION_TE": "DEMO-N", "ETAT": "Fictif"}, "geometry": {"type": "LineString", "coordinates": [[-73.66783, 47.87909], [-73.58061, 47.95135], [-73.52218, 48.07404], [-73.53351, 48.1612], [-73.50024, 48.30125], [-73.42479, 48.42042], [-73.35018, 48.47708], [-73.22077, 48.56677], [-73.06144, 48.62746], [-72.97069, 48.70727], [-72.9013, 48.77357], [-72.83326, 48.89988], [-72.7506, 48.98948], [-72.61605, 49.10056], [-72.47471, 49.17052], [-72.3972, 49.23695], [-72.35488, 49.3162], [-72.35051, 49.45629]]}}, {"type": "Feature", "properties": {"HQ_OBJET": "Ligne fictive 120 kV", "HQ_ETIQUETTE": "120 kV F053", "HQ_SOURCE": "Réseau fictif de démonstration", "LIGNE": "F053", "TYPE": "aérien", "TENSION_EXP": 120, "RESPONSA": "Démo-Centre", "DIRECTION_TE": "DEMO-C", "ETAT": "Fictif"}, "geometry": {"type": "LineString", "coordinates": [[-68.23756, 48.54962], [-68.18351, 48.4134], [-68.15683, 48.32947], [-68.11553, 48.18812], [-68.03857, 48.08498], [-67.90993, 47.99327], [-67.78514, 47.93706], [-67.63059, 47.87482], [-67.4659, 47.85194], [-67.29874, 47.77903], [-67.13574, 47.7611], [-66.98806, 47.7472], [-66.8489, 47.74589], [-67.05303, 47.74589]]}}, {"type": "Feature", "properties": {"HQ_OBJET": "Ligne fictive 69 kV", "HQ_ETIQUETTE": "69 kV F054", "HQ_SOURCE": "Réseau fictif de démonstration", "LIGNE": "F054", "TYPE": "aérien", "TENSION_EXP": 69, "RESPONSA": "Démo-Est", "DIRECTION_TE": "DEMO-E", "ETAT": "Fictif"}, "geometry": {"type": "LineString", "coordinates": [[-73.33371, 47.05181], [-73.37676, 46.94195], [-73.48544, 46.81886], [-73.60375, 46.70774], [-73.65699, 46.60115], [-73.72893, 46.49676], [-73.86379, 46.40494], [-73.98628, 46.29742], [-73.98628, 46.42964], [-73.95022, 46.5392], [-73.96656, 46.6258], [-73.95625, 46.74784], [-74.00027, 46.8876], [-74.04296, 46.96978], [-74.07354, 47.05775], [-74.18049, 47.15413]]}}, {"type": "Feature", "properties": {"HQ_OBJET": "Ligne fictive 735 kV", "HQ_ETIQUETTE": "735 kV F055", "HQ_SOURCE": "Réseau fictif de démonstration", "LIGNE": "F055", "TYPE": "aérien", "TENSION_EXP": 735, "RESPONSA": "Démo-Ouest", "DIRECTION_TE": "DEMO-O", "ETAT": "Fictif"}, "geometry": {"type": "LineString", "coordinates": [[-71.58142, 48.18945], [-71.54213, 48.2637], [-71.49737, 48.36583], [-71.42625, 48.45654], [-71.32607, 48.52131], [-71.17647, 48.59682], [-71.0239, 48.63664], [-70.88219, 48.7017], [-70.80846, 48.76272], [-70.69536, 48.84026]]}}, {"type": "Feature", "properties": {"HQ_OBJET": "Ligne fictive 315 kV", "HQ_ETIQUETTE": "315 kV F056", "HQ_SOURCE": "Réseau fictif de démonstration", "LIGNE": "F056", "TYPE": "aérien", "TENSION_EXP": 315, "RESPONSA": "Démo-Nord", "DIRECTION_TE": "DEMO-N", "ETAT": "Fictif"}, "geometry": {"type": "LineString", "coordinates": [[-76.39131, 47.85723], [-76.19505, 47.81793], [-76.04474, 47.80456], [-75.90132, 47.80594], [-75.75459, 47.8465], [-75.62529, 47.92012], [-75.52006, 48.02906], [-75.42388, 48.15143], [-75.33058, 48.22979], [-75.18767, 48.3102]]}}, {"type": "Feature", "properties": {"HQ_OBJET": "Ligne fictive 230 kV", "HQ_ETIQUETTE": "230 kV F057", "HQ_SOURCE": "Réseau fictif de démonstration", "LIGNE": "F057", "TYPE": "aérien", "TENSION_EXP": 230, "RESPONSA": "Démo-Centre", "DIRECTION_TE": "DEMO-C", "ETAT": "Fictif"}, "geometry": {"type": "LineString", "coordinates": [[-76.0463, 50.66215], [-75.99033, 50.74478], [-75.97917, 50.83181], [-75.94816, 50.92779], [-75.85039, 51.04236], [-75.75829, 51.17185], [-75.69967, 51.25125], [-75.60001, 51.36425], [-75.44016, 51.44017], [-75.35, 51.52959], [-75.28283, 51.65873], [-75.2527, 51.77122], [-75.2527, 51.64801]]}}, {"type": "Feature", "properties": {"HQ_OBJET": "Ligne fictive 120 kV", "HQ_ETIQUETTE": "120 kV F058", "HQ_SOURCE": "Réseau fictif de démonstration", "LIGNE": "F058", "TYPE": "aérien", "TENSION_EXP": 120, "RESPONSA": "Démo-Est", "DIRECTION_TE": "DEMO-E", "ETAT": "Fictif"}, "geometry": {"type": "LineString", "coordinates": [[-70.95827, 51.02787], [-70.86031, 50.98761], [-70.71852, 50.9194], [-70.5813, 50.86774], [-70.40873, 50.8512], [-70.27961, 50.86527], [-70.09633, 50.85023], [-69.88788, 50.80641], [-69.70746, 50.73844], [-69.60656, 50.68404], [-69.52052, 50.56567]]}}, {"type": "Feature", "properties": {"HQ_OBJET": "Ligne fictive 69 kV", "HQ_ETIQUETTE": "69 kV F059", "HQ_SOURCE": "Réseau fictif de démonstration", "LIGNE": "F059", "TYPE": "aérien", "TENSION_EXP": 69, "RESPONSA": "Démo-Ouest", "DIRECTION_TE": "DEMO-O", "ETAT": "Fictif"}, "geometry": {"type": "LineString", "coordinates": [[-72.14091, 48.88811], [-72.11773, 48.9616], [-72.10485, 49.06043], [-72.10075, 49.16955], [-72.18536, 49.30108], [-72.18745, 49.43756], [-72.2009, 49.54616], [-72.24602, 49.61776], [-72.32388, 49.69138]]}}, {"type": "Feature", "properties": {"HQ_OBJET": "Ligne fictive 735 kV", "HQ_ETIQUETTE": "735 kV F060", "HQ_SOURCE": "Réseau fictif de démonstration", "LIGNE": "F060", "TYPE": "aérien", "TENSION_EXP": 735, "RESPONSA": "Démo-Nord", "DIRECTION_TE": "DEMO-N", "ETAT": "Fictif"}, "geometry": {"type": "LineString", "coordinates": [[-76.27916, 50.48768], [-76.23911, 50.39498], [-76.15154, 50.32728], [-76.04236, 50.23752], [-75.91845, 50.15925], [-75.85087, 50.08872], [-75.69227, 50.00115], [-75.54311, 49.96685], [-75.3248, 49.95966], [-75.18284, 49.98095]]}}, {"type": "Feature", "properties": {"HQ_OBJET": "Ligne fictive 315 kV", "HQ_ETIQUETTE": "315 kV F061", "HQ_SOURCE": "Réseau fictif de démonstration", "LIGNE": "F061", "TYPE": "aérien", "TENSION_EXP": 315, "RESPONSA": "Démo-Centre", "DIRECTION_TE": "DEMO-C", "ETAT": "Fictif"}, "geometry": {"type": "LineString", "coordinates": [[-68.64389, 47.36824], [-68.46265, 47.38806], [-68.27615, 47.44352], [-68.17896, 47.4925], [-68.11483, 47.55038], [-68.0034, 47.6338], [-67.8845, 47.70337], [-67.70735, 47.76778], [-67.5314, 47.83777]]}}, {"type": "Feature", "properties": {"HQ_OBJET": "Ligne fictive 230 kV", "HQ_ETIQUETTE": "230 kV F062", "HQ_SOURCE": "Réseau fictif de démonstration", "LIGNE": "F062", "TYPE": "aérien", "TENSION_EXP": 230, "RESPONSA": "Démo-Est", "DIRECTION_TE": "DEMO-E", "ETAT": "Fictif"}, "geometry": {"type": "LineString", "coordinates": [[-71.52824, 50.09104], [-71.62519, 50.15871], [-71.75194, 50.23436], [-71.82444, 50.34105], [-71.92468, 50.4522], [-71.95144, 50.55438], [-71.99968, 50.6492], [-72.04629, 50.78856], [-72.06358, 50.9102], [-72.03785, 51.01839], [-72.05503, 51.11439], [-72.00833, 51.23363], [-72.00681, 51.3673], [-72.01783, 51.46133]]}}, {"type": "Feature", "properties": {"HQ_OBJET": "Ligne fictive 120 kV", "HQ_ETIQUETTE": "120 kV F063", "HQ_SOURCE": "Réseau fictif de démonstration", "LIGNE": "F063", "TYPE": "aérien", "TENSION_EXP": 120, "RESPONSA": "Démo-Ouest", "DIRECTION_TE": "DEMO-O", "ETAT": "Fictif"}, "geometry": {"type": "LineString", "coordinates": [[-69.4643, 48.71278], [-69.36192, 48.64886], [-69.26958, 48.59463], [-69.1016, 48.51883], [-69.00574, 48.48348], [-68.88399, 48.4352], [-68.75796, 48.3499], [-68.70081, 48.26475], [-68.58127, 48.16096], [-68.49732, 48.10103], [-68.43061, 47.98489], [-68.3762, 47.91505], [-68.31734, 47.83202]]}}, {"type": "Feature", "properties": {"HQ_OBJET": "Ligne fictive 69 kV", "HQ_ETIQUETTE": "69 kV F064", "HQ_SOURCE": "Réseau fictif de démonstration", "LIGNE": "F064", "TYPE": "aérien", "TENSION_EXP": 69, "RESPONSA": "Démo-Nord", "DIRECTION_TE": "DEMO-N", "ETAT": "Fictif"}, "geometry": {"type": "LineString", "coordinates": [[-74.08635, 51.56412], [-73.88337, 51.49908], [-73.65527, 51.47489], [-73.44674, 51.49706], [-73.26521, 51.48105], [-73.11227, 51.43521], [-72.98796, 51.3949], [-72.80292, 51.33346], [-72.66911, 51.28789], [-72.4528, 51.26455], [-72.29549, 51.23084], [-72.06827, 51.22805], [-71.92146, 51.18337]]}}, {"type": "Feature", "properties": {"HQ_OBJET": "Ligne fictive 735 kV", "HQ_ETIQUETTE": "735 kV F065", "HQ_SOURCE": "Réseau fictif de démonstration", "LIGNE": "F065", "TYPE": "aérien", "TENSION_EXP": 735, "RESPONSA": "Démo-Centre", "DIRECTION_TE": "DEMO-C", "ETAT": "Fictif"}, "geometry": {"type": "LineString", "coordinates": [[-69.01092, 48.30464], [-68.90371, 48.24611], [-68.76106, 48.20752], [-68.57455, 48.18973], [-68.41104, 48.20094], [-68.22811, 48.24269], [-68.01823, 48.2601], [-67.83953, 48.27798], [-67.71931, 48.28645], [-67.59024, 48.30111]]}}, {"type": "Feature", "properties": {"HQ_OBJET": "Ligne fictive 315 kV", "HQ_ETIQUETTE": "315 kV F066", "HQ_SOURCE": "Réseau fictif de démonstration", "LIGNE": "F066", "TYPE": "aérien", "TENSION_EXP": 315, "RESPONSA": "Démo-Est", "DIRECTION_TE": "DEMO-E", "ETAT": "Fictif"}, "geometry": {"type": "LineString", "coordinates": [[-74.19525, 51.50635], [-74.15497, 51.62763], [-74.139, 51.7002], [-74.139, 51.62722], [-74.1327, 51.53571], [-74.07084, 51.45295], [-74.00578, 51.33041], [-74.02016, 51.2406], [-74.02062, 51.11442]]}}, {"type": "Feature", "properties": {"HQ_OBJET": "Ligne fictive 230 kV", "HQ_ETIQUETTE": "230 kV F067", "HQ_SOURCE": "Réseau fictif de démonstration", "LIGNE": "F067", "TYPE": "aérien", "TENSION_EXP": 230, "RESPONSA": "Démo-Ouest", "DIRECTION_TE": "DEMO-O", "ETAT": "Fictif"}, "geometry": {"type": "LineString", "coordinates": [[-70.50478, 48.14505], [-70.42881, 48.02419], [-70.37518, 47.94902], [-70.31174, 47.83533], [-70.18749, 47.73349], [-70.10659, 47.67648], [-69.92852, 47.61011], [-69.85401, 47.55785], [-69.70177, 47.47528]]}}, {"type": "Feature", "properties": {"HQ_OBJET": "Ligne fictive 120 kV", "HQ_ETIQUETTE": "120 kV F068", "HQ_SOURCE": "Réseau fictif de démonstration", "LIGNE": "F068", "TYPE": "aérien", "TENSION_EXP": 120, "RESPONSA": "Démo-Nord", "DIRECTION_TE": "DEMO-N", "ETAT": "Fictif"}, "geometry": {"type": "LineString", "coordinates": [[-77.34322, 49.76015], [-77.4156, 49.85177], [-77.53366, 49.93006], [-77.69062, 49.96952], [-77.57646, 49.96952], [-77.38175, 49.92135], [-77.22237, 49.90784], [-77.1091, 49.9281], [-77.00026, 49.98701], [-76.92511, 50.06026], [-76.82799, 50.10656], [-76.70451, 50.19942]]}}, {"type": "Feature", "properties": {"HQ_OBJET": "Ligne fictive 69 kV", "HQ_ETIQUETTE": "69 kV F069", "HQ_SOURCE": "Réseau fictif de démonstration", "LIGNE": "F069", "TYPE": "aérien", "TENSION_EXP": 69, "RESPONSA": "Démo-Centre", "DIRECTION_TE": "DEMO-C", "ETAT": "Fictif"}, "geometry": {"type": "LineString", "coordinates": [[-69.21901, 49.27962], [-69.1651, 49.36843], [-69.09393, 49.44485], [-69.00953, 49.5317], [-68.91219, 49.61513], [-68.72817, 49.68778], [-68.55268, 49.74795], [-68.44508, 49.8255], [-68.3665, 49.93765], [-68.26014, 50.04643], [-68.18717, 50.11006], [-68.06653, 50.22616], [-67.97059, 50.26719], [-67.81846, 50.29881], [-67.65553, 50.36137], [-67.46677, 50.38715], [-67.31767, 50.41792], [-67.15131, 50.4148], [-66.94812, 50.41044]]}}, {"type": "Feature", "properties": {"HQ_OBJET": "Ligne fictive 735 kV", "HQ_ETIQUETTE": "735 kV F070", "HQ_SOURCE": "Réseau fictif de démonstration", "LIGNE": "F070", "TYPE": "aérien", "TENSION_EXP": 735, "RESPONSA": "Démo-Est", "DIRECTION_TE": "DEMO-E", "ETAT": "Fictif"}, "geometry": {"type": "LineString", "coordinates": [[-77.18241, 47.77413], [-77.30323, 47.74062], [-77.42627, 47.65557], [-77.58309, 47.56247], [-77.75965, 47.50796], [-77.65041, 47.50796], [-77.48327, 47.50796], [-77.28242, 47.47714], [-77.14182, 47.46292], [-76.97957, 47.39448], [-76.83471, 47.38016], [-76.67649, 47.36446], [-76.48618, 47.30326], [-76.36452, 47.28348], [-76.17456, 47.22547], [-76.02512, 47.12735], [-75.96543, 47.04904], [-75.8183, 46.96386]]}}, {"type": "Feature", "properties": {"HQ_OBJET": "Ligne fictive 315 kV", "HQ_ETIQUETTE": "315 kV F071", "HQ_SOURCE": "Réseau fictif de démonstration", "LIGNE": "F071", "TYPE": "aérien", "TENSION_EXP": 315, "RESPONSA": "Démo-Ouest", "DIRECTION_TE": "DEMO-O", "ETAT": "Fictif"}, "geometry": {"type": "LineString", "coordinates": [[-73.13555, 50.89117], [-73.0865, 50.79555], [-73.06133, 50.69233], [-73.02119, 50.58593], [-72.98335, 50.46882], [-72.95249, 50.39621], [-72.88734, 50.27973], [-72.87851, 50.14558], [-72.91361, 50.01018], [-72.95193, 49.91975]]}}, {"type": "Feature", "properties": {"HQ_OBJET": "Ligne fictive 230 kV", "HQ_ETIQUETTE": "230 kV F072", "HQ_SOURCE": "Réseau fictif de démonstration", "LIGNE": "F072", "TYPE": "aérien", "TENSION_EXP": 230, "RESPONSA": "Démo-Nord", "DIRECTION_TE": "DEMO-N", "ETAT": "Fictif"}, "geometry": {"type": "LineString", "coordinates": [[-70.46462, 48.98061], [-70.43212, 48.8804], [-70.43078, 48.76075], [-70.41783, 48.68295], [-70.42192, 48.60938], [-70.35639, 48.48128], [-70.29938, 48.41809], [-70.23085, 48.34221], [-70.14451, 48.23178], [-70.13666, 48.15883], [-70.0467, 48.04471]]}}, {"type": "Feature", "properties": {"HQ_OBJET": "Ligne fictive 120 kV", "HQ_ETIQUETTE": "120 kV F073", "HQ_SOURCE": "Réseau fictif de démonstration", "LIGNE": "F073", "TYPE": "aérien", "TENSION_EXP": 120, "RESPONSA": "Démo-Centre", "DIRECTION_TE": "DEMO-C", "ETAT": "Fictif"}, "geometry": {"type": "LineString", "coordinates": [[-75.29249, 47.0761], [-75.21891, 47.19895], [-75.21218, 47.34076], [-75.25811, 47.42643], [-75.26818, 47.55819], [-75.27118, 47.66315], [-75.34349, 47.79874], [-75.39394, 47.90608], [-75.39344, 47.98501]]}}, {"type": "Feature", "properties": {"HQ_OBJET": "Ligne fictive 69 kV", "HQ_ETIQUETTE": "69 kV F074", "HQ_SOURCE": "Réseau fictif de démonstration", "LIGNE": "F074", "TYPE": "aérien", "TENSION_EXP": 69, "RESPONSA": "Démo-Est", "DIRECTION_TE": "DEMO-E", "ETAT": "Fictif"}, "geometry": {"type": "LineString", "coordinates": [[-74.70723, 46.83796], [-74.84896, 46.86416], [-75.0328, 46.87866], [-75.13718, 46.92184], [-75.23229, 47.0002], [-75.32953, 47.1204], [-75.47006, 47.21134], [-75.55969, 47.28179], [-75.66105, 47.34219], [-75.727, 47.44184], [-75.82456, 47.52761], [-75.85724, 47.61126], [-75.84054, 47.70404], [-75.78322, 47.79032], [-75.71997, 47.90681]]}}, {"type": "Feature", "properties": {"HQ_OBJET": "Ligne fictive 735 kV", "HQ_ETIQUETTE": "735 kV F075", "HQ_SOURCE": "Réseau fictif de démonstration", "LIGNE": "F075", "TYPE": "aérien", "TENSION_EXP": 735, "RESPONSA": "Démo-Ouest", "DIRECTION_TE": "DEMO-O", "ETAT": "Fictif"}, "geometry": {"type": "LineString", "coordinates": [[-69.64463, 49.0781], [-69.58843, 49.16176], [-69.47845, 49.2294], [-69.34266, 49.27642], [-69.26844, 49.33125], [-69.22357, 49.41074], [-69.1937, 49.55105], [-69.20845, 49.64328], [-69.24272, 49.74291], [-69.24817, 49.82264], [-69.28955, 49.89432], [-69.3184, 49.97011], [-69.39197, 50.04392], [-69.41951, 50.13301], [-69.42816, 50.21971], [-69.51641, 50.32714]]}}, {"type": "Feature", "properties": {"HQ_OBJET": "Ligne fictive 315 kV", "HQ_ETIQUETTE": "315 kV F076", "HQ_SOURCE": "Réseau fictif de démonstration", "LIGNE": "F076", "TYPE": "aérien", "TENSION_EXP": 315, "RESPONSA": "Démo-Nord", "DIRECTION_TE": "DEMO-N", "ETAT": "Fictif"}, "geometry": {"type": "LineString", "coordinates": [[-70.24352, 46.42104], [-70.16411, 46.51157], [-70.05644, 46.56341], [-69.89911, 46.62534], [-69.76109, 46.63886], [-69.62223, 46.63393], [-69.50243, 46.63915], [-69.32477, 46.59692], [-69.17445, 46.52192], [-69.02483, 46.4458]]}}, {"type": "Feature", "properties": {"HQ_OBJET": "Ligne fictive 230 kV", "HQ_ETIQUETTE": "230 kV F077", "HQ_SOURCE": "Réseau fictif de démonstration", "LIGNE": "F077", "TYPE": "aérien", "TENSION_EXP": 230, "RESPONSA": "Démo-Centre", "DIRECTION_TE": "DEMO-C", "ETAT": "Fictif"}, "geometry": {"type": "LineString", "coordinates": [[-67.63534, 50.98945], [-67.54051, 50.93899], [-67.4497, 50.83797], [-67.35433, 50.75659], [-67.26172, 50.65563], [-67.2424, 50.57619], [-67.20728, 50.44809], [-67.11142, 50.33575], [-67.03814, 50.26541]]}}, {"type": "Feature", "properties": {"HQ_OBJET": "Ligne fictive 120 kV", "HQ_ETIQUETTE": "120 kV F078", "HQ_SOURCE": "Réseau fictif de démonstration", "LIGNE": "F078", "TYPE": "aérien", "TENSION_EXP": 120, "RESPONSA": "Démo-Est", "DIRECTION_TE": "DEMO-E", "ETAT": "Fictif"}, "geometry": {"type": "LineString", "coordinates": [[-72.75446, 49.26204], [-72.57458, 49.25845], [-72.44848, 49.25176], [-72.31578, 49.24494], [-72.10533, 49.24796], [-71.91372, 49.23962], [-71.69893, 49.23864], [-71.52973, 49.21762], [-71.3287, 49.24853], [-71.23391, 49.28771], [-71.06632, 49.35205]]}}, {"type": "Feature", "properties": {"HQ_OBJET": "Ligne fictive 69 kV", "HQ_ETIQUETTE": "69 kV F079", "HQ_SOURCE": "Réseau fictif de démonstration", "LIGNE": "F079", "TYPE": "aérien", "TENSION_EXP": 69, "RESPONSA": "Démo-Ouest", "DIRECTION_TE": "DEMO-O", "ETAT": "Fictif"}, "geometry": {"type": "LineString", "coordinates": [[-69.15529, 48.28049], [-69.19643, 48.3661], [-69.24986, 48.44805], [-69.37719, 48.53597], [-69.46139, 48.62733], [-69.4983, 48.72191], [-69.58361, 48.84261], [-69.68491, 48.94941], [-69.77143, 49.05232], [-69.83988, 49.11145], [-69.87626, 49.17967], [-69.88208, 49.28855], [-69.94417, 49.41182]]}}, {"type": "Feature", "properties": {"HQ_OBJET": "Ligne fictive 735 kV", "HQ_ETIQUETTE": "735 kV F080", "HQ_SOURCE": "Réseau fictif de démonstration", "LIGNE": "F080", "TYPE": "aérien", "TENSION_EXP": 735, "RESPONSA": "Démo-Nord", "DIRECTION_TE": "DEMO-N", "ETAT": "Fictif"}, "geometry": {"type": "LineString", "coordinates": [[-71.4944, 47.4873], [-71.39989, 47.53229], [-71.31069, 47.62247], [-71.18682, 47.68775], [-71.03812, 47.74793], [-70.84457, 47.77553], [-70.65324, 47.83931], [-70.51313, 47.89881], [-70.41149, 47.96116], [-70.27256, 48.05175], [-70.18674, 48.09919], [-70.09537, 48.2194], [-70.08725, 48.3246], [-70.11463, 48.41579]]}}]}